[
    {
        "Altitude(m)": 717882.2660780733,
        "Argument of Periapsis(deg)": 0.007973084830638947,
        "Eccentricity": 0.0,
        "Inclination(deg)": 45.0,
        "Latitude(deg)": -45.15399113577677,
        "Longitude(deg)": -165.67471483088053,
        "Mean Anomaly(deg)": 269.8914516532366,
        "RAAN(deg)": 24.992473640979256,
        "Satellite Name": "Constellation 1 126",
        "Satellite Number": 126,
        "Semi-Major Axis(m)": 7083131.272910544,
        "Time(s)": 133
    },
    {
        "Altitude(m)": 717882.2891886224,
        "Argument of Periapsis(deg)": 0.008033032836884352,
        "Eccentricity": 0.0,
        "Inclination(deg)": 45.0,
        "Latitude(deg)": -45.154065557176075,
        "Longitude(deg)": -165.5931862815796,
        "Mean Anomaly(deg)": 269.95215279348645,
        "RAAN(deg)": 24.99241705181369,
        "Satellite Name": "Constellation 1 126",
        "Satellite Number": 126,
        "Semi-Major Axis(m)": 7083131.272910544,
        "Time(s)": 134
    },
    {
        "Altitude(m)": 717882.2858922539,
        "Argument of Periapsis(deg)": 0.008092980843129758,
        "Eccentricity": 0.0,
        "Inclination(deg)": 45.0,
        "Latitude(deg)": -45.15407579265565,
        "Longitude(deg)": -165.51165760558126,
        "Mean Anomaly(deg)": 270.0128539337364,
        "RAAN(deg)": 24.99236046264812,
        "Satellite Name": "Constellation 1 126",
        "Satellite Number": 126,
        "Semi-Major Axis(m)": 7083131.272910544,
        "Time(s)": 135
    },
    {
        "Altitude(m)": 717882.2561889674,
        "Argument of Periapsis(deg)": 0.008152928849375162,
        "Eccentricity": 0.0,
        "Inclination(deg)": 45.0,
        "Latitude(deg)": -45.15402184216979,
        "Longitude(deg)": -165.43012899473104,
        "Mean Anomaly(deg)": 270.0735550739863,
        "RAAN(deg)": 24.992303873482552,
        "Satellite Name": "Constellation 1 126",
        "Satellite Number": 126,
        "Semi-Major Axis(m)": 7083131.272910544,
        "Time(s)": 136
    },
    {
        "Altitude(m)": 717882.2000788541,
        "Argument of Periapsis(deg)": 0.008212876855620568,
        "Eccentricity": 0.0,
        "Inclination(deg)": 45.0,
        "Latitude(deg)": -45.153903705957084,
        "Longitude(deg)": -165.34860064087314,
        "Mean Anomaly(deg)": 270.1342562142362,
        "RAAN(deg)": 24.99224728431698,
        "Satellite Name": "Constellation 1 126",
        "Satellite Number": 126,
        "Semi-Major Axis(m)": 7083131.272910544,
        "Time(s)": 137
    },
    {
        "Altitude(m)": 717882.1175620997,
        "Argument of Periapsis(deg)": 0.008272824861865974,
        "Eccentricity": 0.0,
        "Inclination(deg)": 45.0,
        "Latitude(deg)": -45.15372138454054,
        "Longitude(deg)": -165.2670727358472,
        "Mean Anomaly(deg)": 270.19495735448606,
        "RAAN(deg)": 24.992190695151407,
        "Satellite Name": "Constellation 1 126",
        "Satellite Number": 126,
        "Semi-Major Axis(m)": 7083131.272910544,
        "Time(s)": 138
    },
    {
        "Altitude(m)": 717882.008638988,
        "Argument of Periapsis(deg)": 0.00833277286811138,
        "Eccentricity": 0.0,
        "Inclination(deg)": 45.0,
        "Latitude(deg)": -45.15347487872753,
        "Longitude(deg)": -165.1855454714852,
        "Mean Anomaly(deg)": 270.2556584947359,
        "RAAN(deg)": 24.99213410598584,
        "Satellite Name": "Constellation 1 126",
        "Satellite Number": 126,
        "Semi-Major Axis(m)": 7083131.272910544,
        "Time(s)": 139
    },
    {
        "Altitude(m)": 717881.8733099063,
        "Argument of Periapsis(deg)": 0.008392720874356788,
        "Eccentricity": 0.0,
        "Inclination(deg)": 45.0,
        "Latitude(deg)": -45.15316418960969,
        "Longitude(deg)": -165.10401903960673,
        "Mean Anomaly(deg)": 270.31635963498593,
        "RAAN(deg)": 24.99207751682027,
        "Satellite Name": "Constellation 1 126",
        "Satellite Number": 126,
        "Semi-Major Axis(m)": 7083131.272910544,
        "Time(s)": 140
    },
    {
        "Altitude(m)": 717881.7115753304,
        "Argument of Periapsis(deg)": 0.008452668880602192,
        "Eccentricity": 0.0,
        "Inclination(deg)": 45.0,
        "Latitude(deg)": -45.152789318562746,
        "Longitude(deg)": -165.02249380011463,
        "Mean Anomaly(deg)": 270.3770607752358,
        "RAAN(deg)": 24.992020927654703,
        "Satellite Name": "Constellation 1 126",
        "Satellite Number": 126,
        "Semi-Major Axis(m)": 7083131.272910544,
        "Time(s)": 141
    },
    {
        "Altitude(m)": 717881.52343584,
        "Argument of Periapsis(deg)": 0.008512616886847598,
        "Eccentricity": 0.0,
        "Inclination(deg)": 45.0,
        "Latitude(deg)": -45.15235026724756,
        "Longitude(deg)": -164.94096960860153,
        "Mean Anomaly(deg)": 270.4377619154857,
        "RAAN(deg)": 24.991964338489133,
        "Satellite Name": "Constellation 1 126",
        "Satellite Number": 126,
        "Semi-Major Axis(m)": 7083131.272910544,
        "Time(s)": 142
    },
    {
        "Altitude(m)": 717881.3088921097,
        "Argument of Periapsis(deg)": 0.008572564893093004,
        "Eccentricity": 0.0,
        "Inclination(deg)": 45.0,
        "Latitude(deg)": -45.151847037608384,
        "Longitude(deg)": -164.85944682492936,
        "Mean Anomaly(deg)": 270.49846305573556,
        "RAAN(deg)": 24.99190774932356,
        "Satellite Name": "Constellation 1 126",
        "Satellite Number": 126,
        "Semi-Major Axis(m)": 7083131.272910544,
        "Time(s)": 143
    },
    {
        "Altitude(m)": 717881.0679449143,
        "Argument of Periapsis(deg)": 0.008632512899338408,
        "Eccentricity": 0.0,
        "Inclination(deg)": 45.0,
        "Latitude(deg)": -45.151279631873905,
        "Longitude(deg)": -164.7779256408383,
        "Mean Anomaly(deg)": 270.5591641959855,
        "RAAN(deg)": 24.991851160157992,
        "Satellite Name": "Constellation 1 126",
        "Satellite Number": 126,
        "Semi-Major Axis(m)": 7083131.272910544,
        "Time(s)": 144
    },
    {
        "Altitude(m)": 717880.8005951223,
        "Argument of Periapsis(deg)": 0.008692460905583814,
        "Eccentricity": 0.0,
        "Inclination(deg)": 45.0,
        "Latitude(deg)": -45.15064805255702,
        "Longitude(deg)": -164.6964062480396,
        "Mean Anomaly(deg)": 270.61986533623536,
        "RAAN(deg)": 24.991794570992425,
        "Satellite Name": "Constellation 1 126",
        "Satellite Number": 126,
        "Semi-Major Axis(m)": 7083131.272910544,
        "Time(s)": 145
    },
    {
        "Altitude(m)": 717880.5068437055,
        "Argument of Periapsis(deg)": 0.00875240891182922,
        "Eccentricity": 0.0,
        "Inclination(deg)": 45.0,
        "Latitude(deg)": -45.14995230245471,
        "Longitude(deg)": -164.61488883821232,
        "Mean Anomaly(deg)": 270.68056647648524,
        "RAAN(deg)": 24.991737981826855,
        "Satellite Name": "Constellation 1 126",
        "Satellite Number": 126,
        "Semi-Major Axis(m)": 7083131.272910544,
        "Time(s)": 146
    },
    {
        "Altitude(m)": 717880.1866917266,
        "Argument of Periapsis(deg)": 0.008812356918074627,
        "Eccentricity": 0.0,
        "Inclination(deg)": 45.0,
        "Latitude(deg)": -45.14919238464807,
        "Longitude(deg)": -164.53337360300017,
        "Mean Anomaly(deg)": 270.7412676167352,
        "RAAN(deg)": 24.991681392661288,
        "Satellite Name": "Constellation 1 126",
        "Satellite Number": 126,
        "Semi-Major Axis(m)": 7083131.272910544,
        "Time(s)": 147
    },
    {
        "Altitude(m)": 717879.840140349,
        "Argument of Periapsis(deg)": 0.008872304924320031,
        "Eccentricity": 0.0,
        "Inclination(deg)": 45.0,
        "Latitude(deg)": -45.14836830250175,
        "Longitude(deg)": -164.45186090210515,
        "Mean Anomaly(deg)": 270.8019687569851,
        "RAAN(deg)": 24.991624803495714,
        "Satellite Name": "Constellation 1 126",
        "Satellite Number": 126,
        "Semi-Major Axis(m)": 7083131.272910544,
        "Time(s)": 148
    },
    {
        "Altitude(m)": 717879.4671908336,
        "Argument of Periapsis(deg)": 0.008932252930565437,
        "Eccentricity": 0.0,
        "Inclination(deg)": 45.0,
        "Latitude(deg)": -45.14748005966534,
        "Longitude(deg)": -164.37035059089524,
        "Mean Anomaly(deg)": 270.862669897235,
        "RAAN(deg)": 24.991568214330144,
        "Satellite Name": "Constellation 1 126",
        "Satellite Number": 126,
        "Semi-Major Axis(m)": 7083131.272910544,
        "Time(s)": 149
    },
    {
        "Altitude(m)": 717879.0678445403,
        "Argument of Periapsis(deg)": 0.008992200936810843,
        "Eccentricity": 0.0,
        "Inclination(deg)": 45.0,
        "Latitude(deg)": -45.14652766007127,
        "Longitude(deg)": -164.28884302898442,
        "Mean Anomaly(deg)": 270.92337103748486,
        "RAAN(deg)": 24.991511625164577,
        "Satellite Name": "Constellation 1 126",
        "Satellite Number": 126,
        "Semi-Major Axis(m)": 7083131.272910544,
        "Time(s)": 150
    },
    {
        "Altitude(m)": 717878.6421029181,
        "Argument of Periapsis(deg)": 0.009052148943056249,
        "Eccentricity": 0.0,
        "Inclination(deg)": 45.0,
        "Latitude(deg)": -45.14551110793606,
        "Longitude(deg)": -164.20733840783996,
        "Mean Anomaly(deg)": 270.9840721777348,
        "RAAN(deg)": 24.991455035999007,
        "Satellite Name": "Constellation 1 126",
        "Satellite Number": 126,
        "Semi-Major Axis(m)": 7083131.272910544,
        "Time(s)": 151
    }
]